[{"OBJECT_NAME":"STARLINK-35370","OBJECT_ID":"2025-235AD","EPOCH":"2026-03-09T22:12:15.417216","MEAN_MOTION":15.30208642,"ECCENTRICITY":0.00010404,"INCLINATION":53.1579,"RA_OF_ASC_NODE":244.4481,"ARG_OF_PERICENTER":81.4609,"MEAN_ANOMALY":278.651,"EPHEMERIS_TYPE":0,"CLASSIFICATION_TYPE":"U","NORAD_CAT_ID":66085,"ELEMENT_SET_NO":999,"REV_AT_EPOCH":2292,"BSTAR":0.0012563086,"MEAN_MOTION_DOT":0.00037045,"MEAN_MOTION_DDOT":0},{"OBJECT_NAME":"CZ-2F R\/B","OBJECT_ID":"2026-024B","EPOCH":"2026-03-09T21:33:36.475776","MEAN_MOTION":15.34345765,"ECCENTRICITY":0.01743731,"INCLINATION":49.9895,"RA_OF_ASC_NODE":13.5528,"ARG_OF_PERICENTER":275.7155,"MEAN_ANOMALY":82.3946,"EPHEMERIS_TYPE":0,"CLASSIFICATION_TYPE":"U","NORAD_CAT_ID":67690,"ELEMENT_SET_NO":999,"REV_AT_EPOCH":472,"BSTAR":0.00037009281,"MEAN_MOTION_DOT":0.00020274,"MEAN_MOTION_DDOT":0}]
